<?xml version="1.0" encoding="UTF-8"?>
<gpx version="1.1" creator="vitaegis.com/run" xmlns="http://www.topografix.com/GPX/1/1">
  <metadata><name>KCC Saturday Market loop</name><desc>Start: Gold Coast, Kalakaua Ave, Honolulu. Route traced on OpenStreetMap data (ODbL).</desc></metadata>
  <trk><name>KCC Saturday Market loop</name><trkseg>
      <trkpt lat="21.261892" lon="-157.820374"><ele>1</ele></trkpt>
      <trkpt lat="21.261486" lon="-157.820256"><ele>1</ele></trkpt>
      <trkpt lat="21.260135" lon="-157.819382"><ele>1</ele></trkpt>
      <trkpt lat="21.26018" lon="-157.819321"><ele>1</ele></trkpt>
      <trkpt lat="21.260005" lon="-157.819106"><ele>1</ele></trkpt>
      <trkpt lat="21.259981" lon="-157.818866"><ele>1</ele></trkpt>
      <trkpt lat="21.260168" lon="-157.818178"><ele>2</ele></trkpt>
      <trkpt lat="21.26051" lon="-157.818232"><ele>1</ele></trkpt>
      <trkpt lat="21.261229" lon="-157.818236"><ele>1</ele></trkpt>
      <trkpt lat="21.263303" lon="-157.818571"><ele>2</ele></trkpt>
      <trkpt lat="21.263551" lon="-157.818555"><ele>3</ele></trkpt>
      <trkpt lat="21.263788" lon="-157.818456"><ele>3</ele></trkpt>
      <trkpt lat="21.264951" lon="-157.817542"><ele>2</ele></trkpt>
      <trkpt lat="21.265915" lon="-157.817111"><ele>2</ele></trkpt>
      <trkpt lat="21.26727" lon="-157.816259"><ele>2</ele></trkpt>
      <trkpt lat="21.267821" lon="-157.816087"><ele>2</ele></trkpt>
      <trkpt lat="21.269127" lon="-157.815853"><ele>3</ele></trkpt>
      <trkpt lat="21.269046" lon="-157.813187"><ele>9</ele></trkpt>
      <trkpt lat="21.269155" lon="-157.812678"><ele>9</ele></trkpt>
      <trkpt lat="21.269593" lon="-157.811346"><ele>13</ele></trkpt>
      <trkpt lat="21.269794" lon="-157.808878"><ele>23</ele></trkpt>
      <trkpt lat="21.269784" lon="-157.80782"><ele>28</ele></trkpt>
      <trkpt lat="21.269602" lon="-157.806732"><ele>33</ele></trkpt>
      <trkpt lat="21.26957" lon="-157.804278"><ele>46</ele></trkpt>
      <trkpt lat="21.269651" lon="-157.802901"><ele>50</ele></trkpt>
      <trkpt lat="21.269505" lon="-157.802414"><ele>49</ele></trkpt>
      <trkpt lat="21.269342" lon="-157.802179"><ele>50</ele></trkpt>
      <trkpt lat="21.269044" lon="-157.801872"><ele>49</ele></trkpt>
      <trkpt lat="21.269222" lon="-157.801704"><ele>48</ele></trkpt>
      <trkpt lat="21.269417" lon="-157.801653"><ele>49</ele></trkpt>
      <trkpt lat="21.269767" lon="-157.801787"><ele>49</ele></trkpt>
      <trkpt lat="21.269746" lon="-157.801992"><ele>49</ele></trkpt>
      <trkpt lat="21.269764" lon="-157.8017"><ele>49</ele></trkpt>
      <trkpt lat="21.269462" lon="-157.801603"><ele>49</ele></trkpt>
      <trkpt lat="21.269314" lon="-157.801599"><ele>48</ele></trkpt>
      <trkpt lat="21.269189" lon="-157.801646"><ele>48</ele></trkpt>
      <trkpt lat="21.26901" lon="-157.801802"><ele>49</ele></trkpt>
      <trkpt lat="21.268598" lon="-157.80124"><ele>48</ele></trkpt>
      <trkpt lat="21.268297" lon="-157.800748"><ele>46</ele></trkpt>
      <trkpt lat="21.267795" lon="-157.800184"><ele>43</ele></trkpt>
      <trkpt lat="21.267165" lon="-157.79931"><ele>39</ele></trkpt>
      <trkpt lat="21.265383" lon="-157.797588"><ele>28</ele></trkpt>
      <trkpt lat="21.26505" lon="-157.797395"><ele>29</ele></trkpt>
      <trkpt lat="21.263296" lon="-157.796557"><ele>27</ele></trkpt>
      <trkpt lat="21.262593" lon="-157.796391"><ele>26</ele></trkpt>
      <trkpt lat="21.261893" lon="-157.796438"><ele>23</ele></trkpt>
      <trkpt lat="21.260328" lon="-157.796952"><ele>20</ele></trkpt>
      <trkpt lat="21.260064" lon="-157.797135"><ele>19</ele></trkpt>
      <trkpt lat="21.258971" lon="-157.798139"><ele>18</ele></trkpt>
      <trkpt lat="21.258756" lon="-157.799188"><ele>21</ele></trkpt>
      <trkpt lat="21.258623" lon="-157.799636"><ele>22</ele></trkpt>
      <trkpt lat="21.258473" lon="-157.799941"><ele>20</ele></trkpt>
      <trkpt lat="21.257837" lon="-157.800873"><ele>23</ele></trkpt>
      <trkpt lat="21.257693" lon="-157.801141"><ele>26</ele></trkpt>
      <trkpt lat="21.256955" lon="-157.803074"><ele>31</ele></trkpt>
      <trkpt lat="21.256075" lon="-157.805143"><ele>28</ele></trkpt>
      <trkpt lat="21.255778" lon="-157.805938"><ele>32</ele></trkpt>
      <trkpt lat="21.255698" lon="-157.807235"><ele>33</ele></trkpt>
      <trkpt lat="21.255732" lon="-157.807636"><ele>33</ele></trkpt>
      <trkpt lat="21.256384" lon="-157.811576"><ele>18</ele></trkpt>
      <trkpt lat="21.256313" lon="-157.812761"><ele>19</ele></trkpt>
      <trkpt lat="21.256489" lon="-157.81347"><ele>10</ele></trkpt>
      <trkpt lat="21.256589" lon="-157.814344"><ele>7</ele></trkpt>
      <trkpt lat="21.256661" lon="-157.814618"><ele>5</ele></trkpt>
      <trkpt lat="21.256976" lon="-157.815125"><ele>7</ele></trkpt>
      <trkpt lat="21.257762" lon="-157.816189"><ele>7</ele></trkpt>
      <trkpt lat="21.258006" lon="-157.816848"><ele>5</ele></trkpt>
      <trkpt lat="21.258213" lon="-157.817142"><ele>4</ele></trkpt>
      <trkpt lat="21.258465" lon="-157.817334"><ele>4</ele></trkpt>
      <trkpt lat="21.260168" lon="-157.818178"><ele>2</ele></trkpt>
      <trkpt lat="21.259981" lon="-157.818866"><ele>1</ele></trkpt>
      <trkpt lat="21.260005" lon="-157.819106"><ele>1</ele></trkpt>
      <trkpt lat="21.26018" lon="-157.819321"><ele>1</ele></trkpt>
      <trkpt lat="21.260135" lon="-157.819382"><ele>1</ele></trkpt>
      <trkpt lat="21.261486" lon="-157.820256"><ele>1</ele></trkpt>
      <trkpt lat="21.261892" lon="-157.820374"><ele>1</ele></trkpt>
  </trkseg></trk>
</gpx>
