<?xml version="1.0" encoding="UTF-8"?>
<gpx version="1.1" creator="vitaegis.com/run" xmlns="http://www.topografix.com/GPX/1/1">
  <metadata><name>Lighthouse Seven - Diamond Head, Kahala, Kaimuki, the park</name><desc>Start: 2947 Kalakaua Ave, Honolulu. Route traced on OpenStreetMap data (ODbL).</desc></metadata>
  <trk><name>Lighthouse Seven - Diamond Head, Kahala, Kaimuki, the park</name><trkseg>
      <trkpt lat="21.263973" lon="-157.821363"><ele>1</ele></trkpt>
      <trkpt lat="21.263871" lon="-157.820827"><ele>1</ele></trkpt>
      <trkpt lat="21.263368" lon="-157.820699"><ele>1</ele></trkpt>
      <trkpt lat="21.262706" lon="-157.820566"><ele>1</ele></trkpt>
      <trkpt lat="21.262004" lon="-157.820403"><ele>1</ele></trkpt>
      <trkpt lat="21.261486" lon="-157.820256"><ele>1</ele></trkpt>
      <trkpt lat="21.260135" lon="-157.819382"><ele>1</ele></trkpt>
      <trkpt lat="21.259989" lon="-157.818786"><ele>1</ele></trkpt>
      <trkpt lat="21.260143" lon="-157.81826"><ele>1</ele></trkpt>
      <trkpt lat="21.258806" lon="-157.817507"><ele>4</ele></trkpt>
      <trkpt lat="21.258332" lon="-157.817248"><ele>4</ele></trkpt>
      <trkpt lat="21.257969" lon="-157.816765"><ele>5</ele></trkpt>
      <trkpt lat="21.257762" lon="-157.816189"><ele>7</ele></trkpt>
      <trkpt lat="21.257071" lon="-157.815253"><ele>8</ele></trkpt>
      <trkpt lat="21.256702" lon="-157.814704"><ele>5</ele></trkpt>
      <trkpt lat="21.256547" lon="-157.813835"><ele>10</ele></trkpt>
      <trkpt lat="21.256432" lon="-157.813258"><ele>9</ele></trkpt>
      <trkpt lat="21.25631" lon="-157.81268"><ele>18</ele></trkpt>
      <trkpt lat="21.256372" lon="-157.811987"><ele>14</ele></trkpt>
      <trkpt lat="21.256121" lon="-157.809984"><ele>29</ele></trkpt>
      <trkpt lat="21.256026" lon="-157.809409"><ele>30</ele></trkpt>
      <trkpt lat="21.255732" lon="-157.807636"><ele>33</ele></trkpt>
      <trkpt lat="21.255732" lon="-157.806444"><ele>33</ele></trkpt>
      <trkpt lat="21.256075" lon="-157.805143"><ele>28</ele></trkpt>
      <trkpt lat="21.25642" lon="-157.804336"><ele>33</ele></trkpt>
      <trkpt lat="21.256677" lon="-157.803728"><ele>34</ele></trkpt>
      <trkpt lat="21.256955" lon="-157.803074"><ele>31</ele></trkpt>
      <trkpt lat="21.257442" lon="-157.801795"><ele>29</ele></trkpt>
      <trkpt lat="21.25765" lon="-157.801251"><ele>28</ele></trkpt>
      <trkpt lat="21.25798" lon="-157.800664"><ele>22</ele></trkpt>
      <trkpt lat="21.258421" lon="-157.800024"><ele>20</ele></trkpt>
      <trkpt lat="21.258672" lon="-157.799502"><ele>21</ele></trkpt>
      <trkpt lat="21.258928" lon="-157.798391"><ele>20</ele></trkpt>
      <trkpt lat="21.259351" lon="-157.796071"><ele>17</ele></trkpt>
      <trkpt lat="21.259542" lon="-157.795042"><ele>18</ele></trkpt>
      <trkpt lat="21.25978" lon="-157.793878"><ele>14</ele></trkpt>
      <trkpt lat="21.260021" lon="-157.79273"><ele>8</ele></trkpt>
      <trkpt lat="21.260342" lon="-157.791217"><ele>5</ele></trkpt>
      <trkpt lat="21.260478" lon="-157.79065"><ele>2</ele></trkpt>
      <trkpt lat="21.260705" lon="-157.790062"><ele>2</ele></trkpt>
      <trkpt lat="21.261444" lon="-157.788581"><ele>1</ele></trkpt>
      <trkpt lat="21.261849" lon="-157.787808"><ele>1</ele></trkpt>
      <trkpt lat="21.262138" lon="-157.787245"><ele>1</ele></trkpt>
      <trkpt lat="21.262516" lon="-157.786522"><ele>1</ele></trkpt>
      <trkpt lat="21.262872" lon="-157.785879"><ele>1</ele></trkpt>
      <trkpt lat="21.263499" lon="-157.784966"><ele>1</ele></trkpt>
      <trkpt lat="21.263903" lon="-157.784397"><ele>1</ele></trkpt>
      <trkpt lat="21.264244" lon="-157.783914"><ele>1</ele></trkpt>
      <trkpt lat="21.26464" lon="-157.783352"><ele>1</ele></trkpt>
      <trkpt lat="21.265459" lon="-157.782201"><ele>1</ele></trkpt>
      <trkpt lat="21.265926" lon="-157.781581"><ele>1</ele></trkpt>
      <trkpt lat="21.266313" lon="-157.781219"><ele>1</ele></trkpt>
      <trkpt lat="21.267454" lon="-157.780384"><ele>1</ele></trkpt>
      <trkpt lat="21.267969" lon="-157.780009"><ele>1</ele></trkpt>
      <trkpt lat="21.2687" lon="-157.77948"><ele>1</ele></trkpt>
      <trkpt lat="21.269178" lon="-157.780384"><ele>1</ele></trkpt>
      <trkpt lat="21.269632" lon="-157.78117"><ele>1</ele></trkpt>
      <trkpt lat="21.269987" lon="-157.781761"><ele>1</ele></trkpt>
      <trkpt lat="21.270281" lon="-157.782291"><ele>1</ele></trkpt>
      <trkpt lat="21.270655" lon="-157.78297"><ele>2</ele></trkpt>
      <trkpt lat="21.271089" lon="-157.783748"><ele>2</ele></trkpt>
      <trkpt lat="21.271814" lon="-157.78507"><ele>4</ele></trkpt>
      <trkpt lat="21.272434" lon="-157.785998"><ele>5</ele></trkpt>
      <trkpt lat="21.27158" lon="-157.786666"><ele>5</ele></trkpt>
      <trkpt lat="21.269204" lon="-157.789169"><ele>10</ele></trkpt>
      <trkpt lat="21.268786" lon="-157.789657"><ele>10</ele></trkpt>
      <trkpt lat="21.268628" lon="-157.790176"><ele>9</ele></trkpt>
      <trkpt lat="21.268553" lon="-157.790723"><ele>9</ele></trkpt>
      <trkpt lat="21.268704" lon="-157.791414"><ele>10</ele></trkpt>
      <trkpt lat="21.269101" lon="-157.792263"><ele>11</ele></trkpt>
      <trkpt lat="21.269429" lon="-157.792919"><ele>12</ele></trkpt>
      <trkpt lat="21.270079" lon="-157.794228"><ele>14</ele></trkpt>
      <trkpt lat="21.270526" lon="-157.79513"><ele>17</ele></trkpt>
      <trkpt lat="21.271006" lon="-157.796057"><ele>23</ele></trkpt>
      <trkpt lat="21.271481" lon="-157.796949"><ele>34</ele></trkpt>
      <trkpt lat="21.271932" lon="-157.797832"><ele>49</ele></trkpt>
      <trkpt lat="21.272294" lon="-157.798532"><ele>62</ele></trkpt>
      <trkpt lat="21.272866" lon="-157.799654"><ele>72</ele></trkpt>
      <trkpt lat="21.273414" lon="-157.800725"><ele>72</ele></trkpt>
      <trkpt lat="21.272898" lon="-157.801139"><ele>69</ele></trkpt>
      <trkpt lat="21.272022" lon="-157.801879"><ele>64</ele></trkpt>
      <trkpt lat="21.270405" lon="-157.803189"><ele>52</ele></trkpt>
      <trkpt lat="21.269881" lon="-157.8035"><ele>50</ele></trkpt>
      <trkpt lat="21.26957" lon="-157.804278"><ele>46</ele></trkpt>
      <trkpt lat="21.269583" lon="-157.8055"><ele>38</ele></trkpt>
      <trkpt lat="21.269602" lon="-157.806732"><ele>33</ele></trkpt>
      <trkpt lat="21.269784" lon="-157.80782"><ele>28</ele></trkpt>
      <trkpt lat="21.269804" lon="-157.808413"><ele>25</ele></trkpt>
      <trkpt lat="21.269748" lon="-157.809538"><ele>21</ele></trkpt>
      <trkpt lat="21.269593" lon="-157.811346"><ele>13</ele></trkpt>
      <trkpt lat="21.269155" lon="-157.812678"><ele>9</ele></trkpt>
      <trkpt lat="21.269051" lon="-157.813289"><ele>9</ele></trkpt>
      <trkpt lat="21.269076" lon="-157.814312"><ele>6</ele></trkpt>
      <trkpt lat="21.269093" lon="-157.815038"><ele>4</ele></trkpt>
      <trkpt lat="21.269111" lon="-157.815738"><ele>3</ele></trkpt>
      <trkpt lat="21.269164" lon="-157.816311"><ele>2</ele></trkpt>
      <trkpt lat="21.269236" lon="-157.8172"><ele>1</ele></trkpt>
      <trkpt lat="21.269284" lon="-157.817775"><ele>1</ele></trkpt>
      <trkpt lat="21.269405" lon="-157.81908"><ele>1</ele></trkpt>
      <trkpt lat="21.26948" lon="-157.819864"><ele>1</ele></trkpt>
      <trkpt lat="21.269555" lon="-157.820668"><ele>1</ele></trkpt>
      <trkpt lat="21.269795" lon="-157.821261"><ele>1</ele></trkpt>
      <trkpt lat="21.270282" lon="-157.82185"><ele>1</ele></trkpt>
      <trkpt lat="21.270853" lon="-157.82241"><ele>1</ele></trkpt>
      <trkpt lat="21.271505" lon="-157.822757"><ele>1</ele></trkpt>
      <trkpt lat="21.271013" lon="-157.82258"><ele>1</ele></trkpt>
      <trkpt lat="21.270419" lon="-157.82233"><ele>1</ele></trkpt>
      <trkpt lat="21.268947" lon="-157.821974"><ele>1</ele></trkpt>
      <trkpt lat="21.268062" lon="-157.821751"><ele>1</ele></trkpt>
      <trkpt lat="21.267302" lon="-157.821582"><ele>1</ele></trkpt>
      <trkpt lat="21.266574" lon="-157.821463"><ele>1</ele></trkpt>
      <trkpt lat="21.265963" lon="-157.821311"><ele>1</ele></trkpt>
      <trkpt lat="21.265336" lon="-157.821173"><ele>1</ele></trkpt>
      <trkpt lat="21.264002" lon="-157.820873"><ele>1</ele></trkpt>
      <trkpt lat="21.263973" lon="-157.821363"><ele>1</ele></trkpt>
  </trkseg></trk>
</gpx>
