<?xml version="1.0" encoding="UTF-8"?>
<gpx version="1.1" creator="vitaegis.com/run" xmlns="http://www.topografix.com/GPX/1/1">
  <metadata><name>Honolulu Marathon course</name><desc>Start: 2947 Kalakaua Ave, Honolulu. Route traced on OpenStreetMap data (ODbL).</desc></metadata>
  <trk><name>Honolulu Marathon course</name><trkseg>
      <trkpt lat="21.291808" lon="-157.85075"><ele>1</ele></trkpt>
      <trkpt lat="21.2919" lon="-157.851695"><ele>1</ele></trkpt>
      <trkpt lat="21.291979" lon="-157.852076"><ele>1</ele></trkpt>
      <trkpt lat="21.292245" lon="-157.852815"><ele>1</ele></trkpt>
      <trkpt lat="21.294131" lon="-157.855955"><ele>1</ele></trkpt>
      <trkpt lat="21.294937" lon="-157.857887"><ele>1</ele></trkpt>
      <trkpt lat="21.296235" lon="-157.860585"><ele>1</ele></trkpt>
      <trkpt lat="21.298052" lon="-157.862354"><ele>1</ele></trkpt>
      <trkpt lat="21.298788" lon="-157.86291"><ele>1</ele></trkpt>
      <trkpt lat="21.299089" lon="-157.863036"><ele>1</ele></trkpt>
      <trkpt lat="21.299627" lon="-157.863112"><ele>1</ele></trkpt>
      <trkpt lat="21.303266" lon="-157.86348"><ele>1</ele></trkpt>
      <trkpt lat="21.303804" lon="-157.863378"><ele>1</ele></trkpt>
      <trkpt lat="21.304752" lon="-157.862931"><ele>1</ele></trkpt>
      <trkpt lat="21.304968" lon="-157.862876"><ele>1</ele></trkpt>
      <trkpt lat="21.305301" lon="-157.862865"><ele>1</ele></trkpt>
      <trkpt lat="21.305632" lon="-157.862945"><ele>1</ele></trkpt>
      <trkpt lat="21.30584" lon="-157.863048"><ele>1</ele></trkpt>
      <trkpt lat="21.30774" lon="-157.864268"><ele>1</ele></trkpt>
      <trkpt lat="21.307956" lon="-157.864371"><ele>1</ele></trkpt>
      <trkpt lat="21.308168" lon="-157.864213"><ele>1</ele></trkpt>
      <trkpt lat="21.309356" lon="-157.864137"><ele>1</ele></trkpt>
      <trkpt lat="21.309835" lon="-157.864186"><ele>1</ele></trkpt>
      <trkpt lat="21.310271" lon="-157.86433"><ele>1</ele></trkpt>
      <trkpt lat="21.31011" lon="-157.86415"><ele>1</ele></trkpt>
      <trkpt lat="21.310101" lon="-157.863944"><ele>3</ele></trkpt>
      <trkpt lat="21.310552" lon="-157.862931"><ele>5</ele></trkpt>
      <trkpt lat="21.309164" lon="-157.862093"><ele>4</ele></trkpt>
      <trkpt lat="21.30703" lon="-157.860359"><ele>3</ele></trkpt>
      <trkpt lat="21.305893" lon="-157.859369"><ele>3</ele></trkpt>
      <trkpt lat="21.305324" lon="-157.858524"><ele>3</ele></trkpt>
      <trkpt lat="21.304497" lon="-157.857106"><ele>3</ele></trkpt>
      <trkpt lat="21.303795" lon="-157.855745"><ele>3</ele></trkpt>
      <trkpt lat="21.303587" lon="-157.855588"><ele>2</ele></trkpt>
      <trkpt lat="21.301609" lon="-157.854661"><ele>1</ele></trkpt>
      <trkpt lat="21.301206" lon="-157.854431"><ele>1</ele></trkpt>
      <trkpt lat="21.298127" lon="-157.852065"><ele>1</ele></trkpt>
      <trkpt lat="21.297508" lon="-157.851539"><ele>1</ele></trkpt>
      <trkpt lat="21.297196" lon="-157.85122"><ele>1</ele></trkpt>
      <trkpt lat="21.29685" lon="-157.850789"><ele>1</ele></trkpt>
      <trkpt lat="21.296523" lon="-157.85021"><ele>1</ele></trkpt>
      <trkpt lat="21.29478" lon="-157.846261"><ele>1</ele></trkpt>
      <trkpt lat="21.294664" lon="-157.84639"><ele>1</ele></trkpt>
      <trkpt lat="21.294381" lon="-157.846516"><ele>1</ele></trkpt>
      <trkpt lat="21.293255" lon="-157.84695"><ele>1</ele></trkpt>
      <trkpt lat="21.29169" lon="-157.847633"><ele>1</ele></trkpt>
      <trkpt lat="21.290997" lon="-157.847866"><ele>1</ele></trkpt>
      <trkpt lat="21.290855" lon="-157.847763"><ele>1</ele></trkpt>
      <trkpt lat="21.290731" lon="-157.847603"><ele>1</ele></trkpt>
      <trkpt lat="21.290029" lon="-157.845811"><ele>1</ele></trkpt>
      <trkpt lat="21.288949" lon="-157.841494"><ele>1</ele></trkpt>
      <trkpt lat="21.288705" lon="-157.840881"><ele>1</ele></trkpt>
      <trkpt lat="21.288332" lon="-157.840516"><ele>1</ele></trkpt>
      <trkpt lat="21.287968" lon="-157.840381"><ele>4</ele></trkpt>
      <trkpt lat="21.287091" lon="-157.84016"><ele>1</ele></trkpt>
      <trkpt lat="21.286892" lon="-157.840051"><ele>1</ele></trkpt>
      <trkpt lat="21.284976" lon="-157.838413"><ele>1</ele></trkpt>
      <trkpt lat="21.284791" lon="-157.838196"><ele>1</ele></trkpt>
      <trkpt lat="21.284611" lon="-157.837869"><ele>1</ele></trkpt>
      <trkpt lat="21.284521" lon="-157.837597"><ele>1</ele></trkpt>
      <trkpt lat="21.284478" lon="-157.837228"><ele>1</ele></trkpt>
      <trkpt lat="21.284511" lon="-157.836916"><ele>1</ele></trkpt>
      <trkpt lat="21.28456" lon="-157.836686"><ele>1</ele></trkpt>
      <trkpt lat="21.284911" lon="-157.83574"><ele>1</ele></trkpt>
      <trkpt lat="21.285598" lon="-157.833411"><ele>1</ele></trkpt>
      <trkpt lat="21.285546" lon="-157.832941"><ele>1</ele></trkpt>
      <trkpt lat="21.284028" lon="-157.83198"><ele>1</ele></trkpt>
      <trkpt lat="21.281491" lon="-157.83059"><ele>1</ele></trkpt>
      <trkpt lat="21.279869" lon="-157.829636"><ele>1</ele></trkpt>
      <trkpt lat="21.279369" lon="-157.829225"><ele>1</ele></trkpt>
      <trkpt lat="21.276539" lon="-157.826079"><ele>1</ele></trkpt>
      <trkpt lat="21.275125" lon="-157.824703"><ele>1</ele></trkpt>
      <trkpt lat="21.274924" lon="-157.824553"><ele>1</ele></trkpt>
      <trkpt lat="21.273903" lon="-157.82399"><ele>1</ele></trkpt>
      <trkpt lat="21.271009" lon="-157.822509"><ele>1</ele></trkpt>
      <trkpt lat="21.270853" lon="-157.82241"><ele>1</ele></trkpt>
      <trkpt lat="21.270282" lon="-157.82185"><ele>1</ele></trkpt>
      <trkpt lat="21.269795" lon="-157.821261"><ele>1</ele></trkpt>
      <trkpt lat="21.269555" lon="-157.820668"><ele>1</ele></trkpt>
      <trkpt lat="21.269127" lon="-157.815853"><ele>3</ele></trkpt>
      <trkpt lat="21.267821" lon="-157.816087"><ele>2</ele></trkpt>
      <trkpt lat="21.26727" lon="-157.816259"><ele>2</ele></trkpt>
      <trkpt lat="21.265915" lon="-157.817111"><ele>2</ele></trkpt>
      <trkpt lat="21.264951" lon="-157.817542"><ele>2</ele></trkpt>
      <trkpt lat="21.263788" lon="-157.818456"><ele>3</ele></trkpt>
      <trkpt lat="21.263469" lon="-157.81857"><ele>3</ele></trkpt>
      <trkpt lat="21.263303" lon="-157.818571"><ele>2</ele></trkpt>
      <trkpt lat="21.261229" lon="-157.818236"><ele>1</ele></trkpt>
      <trkpt lat="21.26051" lon="-157.818232"><ele>1</ele></trkpt>
      <trkpt lat="21.260168" lon="-157.818178"><ele>2</ele></trkpt>
      <trkpt lat="21.258465" lon="-157.817334"><ele>4</ele></trkpt>
      <trkpt lat="21.258213" lon="-157.817142"><ele>4</ele></trkpt>
      <trkpt lat="21.258006" lon="-157.816848"><ele>5</ele></trkpt>
      <trkpt lat="21.257762" lon="-157.816189"><ele>7</ele></trkpt>
      <trkpt lat="21.256792" lon="-157.814851"><ele>6</ele></trkpt>
      <trkpt lat="21.256605" lon="-157.814438"><ele>7</ele></trkpt>
      <trkpt lat="21.256529" lon="-157.813696"><ele>11</ele></trkpt>
      <trkpt lat="21.256313" lon="-157.812761"><ele>19</ele></trkpt>
      <trkpt lat="21.256384" lon="-157.811576"><ele>18</ele></trkpt>
      <trkpt lat="21.255702" lon="-157.807362"><ele>34</ele></trkpt>
      <trkpt lat="21.255778" lon="-157.805938"><ele>32</ele></trkpt>
      <trkpt lat="21.256075" lon="-157.805143"><ele>28</ele></trkpt>
      <trkpt lat="21.256955" lon="-157.803074"><ele>31</ele></trkpt>
      <trkpt lat="21.257693" lon="-157.801141"><ele>26</ele></trkpt>
      <trkpt lat="21.257837" lon="-157.800873"><ele>23</ele></trkpt>
      <trkpt lat="21.258473" lon="-157.799941"><ele>20</ele></trkpt>
      <trkpt lat="21.258623" lon="-157.799636"><ele>22</ele></trkpt>
      <trkpt lat="21.258756" lon="-157.799188"><ele>21</ele></trkpt>
      <trkpt lat="21.258971" lon="-157.798139"><ele>18</ele></trkpt>
      <trkpt lat="21.260064" lon="-157.797135"><ele>19</ele></trkpt>
      <trkpt lat="21.260437" lon="-157.7969"><ele>20</ele></trkpt>
      <trkpt lat="21.261893" lon="-157.796438"><ele>23</ele></trkpt>
      <trkpt lat="21.262375" lon="-157.796387"><ele>25</ele></trkpt>
      <trkpt lat="21.262899" lon="-157.796439"><ele>27</ele></trkpt>
      <trkpt lat="21.263296" lon="-157.796557"><ele>27</ele></trkpt>
      <trkpt lat="21.26505" lon="-157.797395"><ele>29</ele></trkpt>
      <trkpt lat="21.265383" lon="-157.797588"><ele>28</ele></trkpt>
      <trkpt lat="21.267129" lon="-157.799274"><ele>39</ele></trkpt>
      <trkpt lat="21.267295" lon="-157.799476"><ele>40</ele></trkpt>
      <trkpt lat="21.267532" lon="-157.79926"><ele>36</ele></trkpt>
      <trkpt lat="21.267772" lon="-157.799106"><ele>34</ele></trkpt>
      <trkpt lat="21.271481" lon="-157.796949"><ele>34</ele></trkpt>
      <trkpt lat="21.270526" lon="-157.79513"><ele>17</ele></trkpt>
      <trkpt lat="21.268704" lon="-157.791414"><ele>10</ele></trkpt>
      <trkpt lat="21.268621" lon="-157.791171"><ele>10</ele></trkpt>
      <trkpt lat="21.268553" lon="-157.790723"><ele>9</ele></trkpt>
      <trkpt lat="21.26857" lon="-157.790418"><ele>9</ele></trkpt>
      <trkpt lat="21.268776" lon="-157.78978"><ele>10</ele></trkpt>
      <trkpt lat="21.268882" lon="-157.789714"><ele>10</ele></trkpt>
      <trkpt lat="21.269031" lon="-157.789495"><ele>10</ele></trkpt>
      <trkpt lat="21.271469" lon="-157.786951"><ele>6</ele></trkpt>
      <trkpt lat="21.271859" lon="-157.786589"><ele>5</ele></trkpt>
      <trkpt lat="21.272513" lon="-157.786104"><ele>5</ele></trkpt>
      <trkpt lat="21.272996" lon="-157.785825"><ele>5</ele></trkpt>
      <trkpt lat="21.273911" lon="-157.78545"><ele>6</ele></trkpt>
      <trkpt lat="21.274992" lon="-157.785162"><ele>8</ele></trkpt>
      <trkpt lat="21.276289" lon="-157.784921"><ele>10</ele></trkpt>
      <trkpt lat="21.278274" lon="-157.784646"><ele>12</ele></trkpt>
      <trkpt lat="21.278233" lon="-157.784281"><ele>11</ele></trkpt>
      <trkpt lat="21.278087" lon="-157.78416"><ele>11</ele></trkpt>
      <trkpt lat="21.278074" lon="-157.783801"><ele>11</ele></trkpt>
      <trkpt lat="21.27788" lon="-157.782289"><ele>9</ele></trkpt>
      <trkpt lat="21.27773" lon="-157.779894"><ele>10</ele></trkpt>
      <trkpt lat="21.277681" lon="-157.779631"><ele>11</ele></trkpt>
      <trkpt lat="21.277763" lon="-157.779611"><ele>11</ele></trkpt>
      <trkpt lat="21.277071" lon="-157.773388"><ele>3</ele></trkpt>
      <trkpt lat="21.275884" lon="-157.766832"><ele>2</ele></trkpt>
      <trkpt lat="21.275844" lon="-157.76635"><ele>2</ele></trkpt>
      <trkpt lat="21.275884" lon="-157.765545"><ele>3</ele></trkpt>
      <trkpt lat="21.276107" lon="-157.763653"><ele>2</ele></trkpt>
      <trkpt lat="21.276619" lon="-157.760017"><ele>1</ele></trkpt>
      <trkpt lat="21.276852" lon="-157.758642"><ele>2</ele></trkpt>
      <trkpt lat="21.277923" lon="-157.754212"><ele>1</ele></trkpt>
      <trkpt lat="21.278252" lon="-157.751113"><ele>1</ele></trkpt>
      <trkpt lat="21.278546" lon="-157.749476"><ele>1</ele></trkpt>
      <trkpt lat="21.279084" lon="-157.747281"><ele>1</ele></trkpt>
      <trkpt lat="21.279646" lon="-157.745422"><ele>1</ele></trkpt>
      <trkpt lat="21.280225" lon="-157.743308"><ele>1</ele></trkpt>
      <trkpt lat="21.280398" lon="-157.742403"><ele>1</ele></trkpt>
      <trkpt lat="21.28063" lon="-157.739904"><ele>1</ele></trkpt>
      <trkpt lat="21.280735" lon="-157.739186"><ele>1</ele></trkpt>
      <trkpt lat="21.281562" lon="-157.736011"><ele>1</ele></trkpt>
      <trkpt lat="21.282348" lon="-157.733218"><ele>1</ele></trkpt>
      <trkpt lat="21.282424" lon="-157.732785"><ele>1</ele></trkpt>
      <trkpt lat="21.282522" lon="-157.731579"><ele>1</ele></trkpt>
      <trkpt lat="21.282651" lon="-157.731012"><ele>1</ele></trkpt>
      <trkpt lat="21.282843" lon="-157.73048"><ele>1</ele></trkpt>
      <trkpt lat="21.284011" lon="-157.728161"><ele>1</ele></trkpt>
      <trkpt lat="21.285017" lon="-157.726434"><ele>1</ele></trkpt>
      <trkpt lat="21.285155" lon="-157.726122"><ele>1</ele></trkpt>
      <trkpt lat="21.286053" lon="-157.722595"><ele>1</ele></trkpt>
      <trkpt lat="21.286139" lon="-157.721503"><ele>1</ele></trkpt>
      <trkpt lat="21.286069" lon="-157.720677"><ele>1</ele></trkpt>
      <trkpt lat="21.285979" lon="-157.720194"><ele>1</ele></trkpt>
      <trkpt lat="21.285859" lon="-157.719797"><ele>1</ele></trkpt>
      <trkpt lat="21.285591" lon="-157.719183"><ele>1</ele></trkpt>
      <trkpt lat="21.284564" lon="-157.717597"><ele>1</ele></trkpt>
      <trkpt lat="21.285399" lon="-157.716903"><ele>1</ele></trkpt>
      <trkpt lat="21.286612" lon="-157.715597"><ele>1</ele></trkpt>
      <trkpt lat="21.288906" lon="-157.713605"><ele>2</ele></trkpt>
      <trkpt lat="21.289102" lon="-157.71336"><ele>3</ele></trkpt>
      <trkpt lat="21.289638" lon="-157.712504"><ele>4</ele></trkpt>
      <trkpt lat="21.289841" lon="-157.712265"><ele>3</ele></trkpt>
      <trkpt lat="21.290185" lon="-157.712042"><ele>3</ele></trkpt>
      <trkpt lat="21.292206" lon="-157.711313"><ele>3</ele></trkpt>
      <trkpt lat="21.293093" lon="-157.710941"><ele>3</ele></trkpt>
      <trkpt lat="21.293383" lon="-157.710713"><ele>3</ele></trkpt>
      <trkpt lat="21.293563" lon="-157.710481"><ele>3</ele></trkpt>
      <trkpt lat="21.29372" lon="-157.710146"><ele>3</ele></trkpt>
      <trkpt lat="21.293799" lon="-157.709784"><ele>3</ele></trkpt>
      <trkpt lat="21.293818" lon="-157.709108"><ele>2</ele></trkpt>
      <trkpt lat="21.29372" lon="-157.708625"><ele>1</ele></trkpt>
      <trkpt lat="21.293622" lon="-157.708401"><ele>3</ele></trkpt>
      <trkpt lat="21.293418" lon="-157.708102"><ele>3</ele></trkpt>
      <trkpt lat="21.293003" lon="-157.70776"><ele>3</ele></trkpt>
      <trkpt lat="21.29252" lon="-157.70759"><ele>3</ele></trkpt>
      <trkpt lat="21.290108" lon="-157.707367"><ele>2</ele></trkpt>
      <trkpt lat="21.289782" lon="-157.707303"><ele>2</ele></trkpt>
      <trkpt lat="21.2867" lon="-157.705717"><ele>1</ele></trkpt>
      <trkpt lat="21.285668" lon="-157.708187"><ele>1</ele></trkpt>
      <trkpt lat="21.285275" lon="-157.709009"><ele>1</ele></trkpt>
      <trkpt lat="21.284645" lon="-157.710543"><ele>1</ele></trkpt>
      <trkpt lat="21.28422" lon="-157.7117"><ele>1</ele></trkpt>
      <trkpt lat="21.283959" lon="-157.712775"><ele>1</ele></trkpt>
      <trkpt lat="21.283883" lon="-157.713274"><ele>1</ele></trkpt>
      <trkpt lat="21.283805" lon="-157.714379"><ele>1</ele></trkpt>
      <trkpt lat="21.283747" lon="-157.714604"><ele>1</ele></trkpt>
      <trkpt lat="21.283547" lon="-157.714925"><ele>1</ele></trkpt>
      <trkpt lat="21.283021" lon="-157.71531"><ele>1</ele></trkpt>
      <trkpt lat="21.285212" lon="-157.718558"><ele>0</ele></trkpt>
      <trkpt lat="21.285591" lon="-157.719183"><ele>1</ele></trkpt>
      <trkpt lat="21.285758" lon="-157.719542"><ele>1</ele></trkpt>
      <trkpt lat="21.285979" lon="-157.720194"><ele>1</ele></trkpt>
      <trkpt lat="21.286069" lon="-157.720677"><ele>1</ele></trkpt>
      <trkpt lat="21.286139" lon="-157.721804"><ele>1</ele></trkpt>
      <trkpt lat="21.286053" lon="-157.722595"><ele>1</ele></trkpt>
      <trkpt lat="21.285155" lon="-157.726122"><ele>1</ele></trkpt>
      <trkpt lat="21.285017" lon="-157.726434"><ele>1</ele></trkpt>
      <trkpt lat="21.284011" lon="-157.728161"><ele>1</ele></trkpt>
      <trkpt lat="21.282843" lon="-157.73048"><ele>1</ele></trkpt>
      <trkpt lat="21.282651" lon="-157.731012"><ele>1</ele></trkpt>
      <trkpt lat="21.282522" lon="-157.731579"><ele>1</ele></trkpt>
      <trkpt lat="21.282424" lon="-157.732785"><ele>1</ele></trkpt>
      <trkpt lat="21.282348" lon="-157.733218"><ele>1</ele></trkpt>
      <trkpt lat="21.281562" lon="-157.736011"><ele>1</ele></trkpt>
      <trkpt lat="21.280735" lon="-157.739186"><ele>1</ele></trkpt>
      <trkpt lat="21.28063" lon="-157.739904"><ele>1</ele></trkpt>
      <trkpt lat="21.280398" lon="-157.742403"><ele>1</ele></trkpt>
      <trkpt lat="21.280225" lon="-157.743308"><ele>1</ele></trkpt>
      <trkpt lat="21.279646" lon="-157.745422"><ele>1</ele></trkpt>
      <trkpt lat="21.279084" lon="-157.747281"><ele>1</ele></trkpt>
      <trkpt lat="21.278546" lon="-157.749476"><ele>1</ele></trkpt>
      <trkpt lat="21.278252" lon="-157.751113"><ele>1</ele></trkpt>
      <trkpt lat="21.277923" lon="-157.754212"><ele>1</ele></trkpt>
      <trkpt lat="21.276852" lon="-157.758642"><ele>2</ele></trkpt>
      <trkpt lat="21.276619" lon="-157.760017"><ele>1</ele></trkpt>
      <trkpt lat="21.276107" lon="-157.763653"><ele>2</ele></trkpt>
      <trkpt lat="21.275884" lon="-157.765545"><ele>3</ele></trkpt>
      <trkpt lat="21.275844" lon="-157.76635"><ele>2</ele></trkpt>
      <trkpt lat="21.275884" lon="-157.766832"><ele>2</ele></trkpt>
      <trkpt lat="21.277071" lon="-157.773388"><ele>3</ele></trkpt>
      <trkpt lat="21.277763" lon="-157.779611"><ele>11</ele></trkpt>
      <trkpt lat="21.277681" lon="-157.779631"><ele>11</ele></trkpt>
      <trkpt lat="21.27773" lon="-157.779894"><ele>10</ele></trkpt>
      <trkpt lat="21.27788" lon="-157.782289"><ele>9</ele></trkpt>
      <trkpt lat="21.278075" lon="-157.783854"><ele>11</ele></trkpt>
      <trkpt lat="21.278051" lon="-157.783915"><ele>11</ele></trkpt>
      <trkpt lat="21.27797" lon="-157.783962"><ele>11</ele></trkpt>
      <trkpt lat="21.277807" lon="-157.78392"><ele>10</ele></trkpt>
      <trkpt lat="21.273209" lon="-157.781376"><ele>4</ele></trkpt>
      <trkpt lat="21.26964" lon="-157.778759"><ele>2</ele></trkpt>
      <trkpt lat="21.2694" lon="-157.778971"><ele>2</ele></trkpt>
      <trkpt lat="21.266387" lon="-157.781163"><ele>1</ele></trkpt>
      <trkpt lat="21.265987" lon="-157.781512"><ele>1</ele></trkpt>
      <trkpt lat="21.265526" lon="-157.782105"><ele>1</ele></trkpt>
      <trkpt lat="21.262938" lon="-157.785769"><ele>1</ele></trkpt>
      <trkpt lat="21.262673" lon="-157.786214"><ele>1</ele></trkpt>
      <trkpt lat="21.260628" lon="-157.790209"><ele>2</ele></trkpt>
      <trkpt lat="21.260478" lon="-157.79065"><ele>2</ele></trkpt>
      <trkpt lat="21.260021" lon="-157.79273"><ele>8</ele></trkpt>
      <trkpt lat="21.259542" lon="-157.795042"><ele>18</ele></trkpt>
      <trkpt lat="21.258928" lon="-157.798391"><ele>20</ele></trkpt>
      <trkpt lat="21.258672" lon="-157.799502"><ele>21</ele></trkpt>
      <trkpt lat="21.258473" lon="-157.799941"><ele>20</ele></trkpt>
      <trkpt lat="21.257837" lon="-157.800873"><ele>23</ele></trkpt>
      <trkpt lat="21.257693" lon="-157.801141"><ele>26</ele></trkpt>
      <trkpt lat="21.256955" lon="-157.803074"><ele>31</ele></trkpt>
      <trkpt lat="21.256075" lon="-157.805143"><ele>28</ele></trkpt>
      <trkpt lat="21.255778" lon="-157.805938"><ele>32</ele></trkpt>
      <trkpt lat="21.255702" lon="-157.807108"><ele>31</ele></trkpt>
      <trkpt lat="21.255713" lon="-157.8075"><ele>34</ele></trkpt>
      <trkpt lat="21.256384" lon="-157.811576"><ele>18</ele></trkpt>
      <trkpt lat="21.256313" lon="-157.812761"><ele>19</ele></trkpt>
      <trkpt lat="21.256489" lon="-157.81347"><ele>10</ele></trkpt>
      <trkpt lat="21.256629" lon="-157.814529"><ele>6</ele></trkpt>
      <trkpt lat="21.256976" lon="-157.815125"><ele>7</ele></trkpt>
      <trkpt lat="21.257762" lon="-157.816189"><ele>7</ele></trkpt>
      <trkpt lat="21.258006" lon="-157.816848"><ele>5</ele></trkpt>
      <trkpt lat="21.258213" lon="-157.817142"><ele>4</ele></trkpt>
      <trkpt lat="21.258397" lon="-157.817293"><ele>4</ele></trkpt>
      <trkpt lat="21.258806" lon="-157.817507"><ele>4</ele></trkpt>
      <trkpt lat="21.258801" lon="-157.817572"><ele>4</ele></trkpt>
      <trkpt lat="21.260112" lon="-157.818242"><ele>1</ele></trkpt>
      <trkpt lat="21.260112" lon="-157.818329"><ele>1</ele></trkpt>
      <trkpt lat="21.259935" lon="-157.818827"><ele>1</ele></trkpt>
      <trkpt lat="21.259954" lon="-157.819197"><ele>1</ele></trkpt>
      <trkpt lat="21.260008" lon="-157.819293"><ele>1</ele></trkpt>
      <trkpt lat="21.261572" lon="-157.820291"><ele>1</ele></trkpt>
      <trkpt lat="21.265336" lon="-157.821173"><ele>1</ele></trkpt>
      <trkpt lat="21.265245" lon="-157.821277"><ele>1</ele></trkpt>
      <trkpt lat="21.265103" lon="-157.821976"><ele>1</ele></trkpt>
      <trkpt lat="21.265635" lon="-157.822208"><ele>1</ele></trkpt>
      <trkpt lat="21.267077" lon="-157.822549"><ele>1</ele></trkpt>
      <trkpt lat="21.267813" lon="-157.82265"><ele>1</ele></trkpt>
      <trkpt lat="21.267773" lon="-157.822572"><ele>1</ele></trkpt>
      <trkpt lat="21.267802" lon="-157.822426"><ele>1</ele></trkpt>
      <trkpt lat="21.267838" lon="-157.822434"><ele>1</ele></trkpt>
      <trkpt lat="21.267993" lon="-157.82181"><ele>1</ele></trkpt>
      <trkpt lat="21.268933" lon="-157.822042"><ele>1</ele></trkpt>
      <trkpt lat="21.268993" lon="-157.821758"><ele>1</ele></trkpt>
      <trkpt lat="21.268892" lon="-157.821733"><ele>1</ele></trkpt>
      <trkpt lat="21.268902" lon="-157.82129"><ele>1</ele></trkpt>
      <trkpt lat="21.269086" lon="-157.820827"><ele>1</ele></trkpt>
      <trkpt lat="21.269077" lon="-157.820627"><ele>1</ele></trkpt>
      <trkpt lat="21.268587" lon="-157.820656"><ele>1</ele></trkpt>
  </trkseg></trk>
</gpx>
