<?xml version="1.0" encoding="UTF-8"?>
<gpx version="1.1" creator="vitaegis.com/run" xmlns="http://www.topografix.com/GPX/1/1">
  <metadata><name>Park Shakeout - Kapiolani Park perimeter</name><desc>Start: 2947 Kalakaua Ave, Honolulu. Route traced on OpenStreetMap data (ODbL).</desc></metadata>
  <trk><name>Park Shakeout - Kapiolani Park perimeter</name><trkseg>
      <trkpt lat="21.263973" lon="-157.821363"><ele>1</ele></trkpt>
      <trkpt lat="21.265336" lon="-157.821173"><ele>1</ele></trkpt>
      <trkpt lat="21.265963" lon="-157.821311"><ele>1</ele></trkpt>
      <trkpt lat="21.266574" lon="-157.821463"><ele>1</ele></trkpt>
      <trkpt lat="21.267302" lon="-157.821582"><ele>1</ele></trkpt>
      <trkpt lat="21.268062" lon="-157.821751"><ele>1</ele></trkpt>
      <trkpt lat="21.268854" lon="-157.821952"><ele>1</ele></trkpt>
      <trkpt lat="21.270139" lon="-157.822243"><ele>1</ele></trkpt>
      <trkpt lat="21.270811" lon="-157.822489"><ele>1</ele></trkpt>
      <trkpt lat="21.271505" lon="-157.822757"><ele>1</ele></trkpt>
      <trkpt lat="21.271009" lon="-157.822509"><ele>1</ele></trkpt>
      <trkpt lat="21.270507" lon="-157.822059"><ele>1</ele></trkpt>
      <trkpt lat="21.269795" lon="-157.821261"><ele>1</ele></trkpt>
      <trkpt lat="21.269555" lon="-157.820668"><ele>1</ele></trkpt>
      <trkpt lat="21.26948" lon="-157.819864"><ele>1</ele></trkpt>
      <trkpt lat="21.269428" lon="-157.819309"><ele>1</ele></trkpt>
      <trkpt lat="21.269302" lon="-157.817971"><ele>1</ele></trkpt>
      <trkpt lat="21.269236" lon="-157.8172"><ele>1</ele></trkpt>
      <trkpt lat="21.269164" lon="-157.816311"><ele>2</ele></trkpt>
      <trkpt lat="21.268023" lon="-157.816047"><ele>2</ele></trkpt>
      <trkpt lat="21.267468" lon="-157.816176"><ele>2</ele></trkpt>
      <trkpt lat="21.266271" lon="-157.816878"><ele>2</ele></trkpt>
      <trkpt lat="21.265744" lon="-157.817178"><ele>2</ele></trkpt>
      <trkpt lat="21.265136" lon="-157.817449"><ele>2</ele></trkpt>
      <trkpt lat="21.264625" lon="-157.817772"><ele>2</ele></trkpt>
      <trkpt lat="21.263788" lon="-157.818456"><ele>3</ele></trkpt>
      <trkpt lat="21.263115" lon="-157.818537"><ele>2</ele></trkpt>
      <trkpt lat="21.262298" lon="-157.818394"><ele>1</ele></trkpt>
      <trkpt lat="21.261764" lon="-157.818311"><ele>1</ele></trkpt>
      <trkpt lat="21.261229" lon="-157.818236"><ele>1</ele></trkpt>
      <trkpt lat="21.26051" lon="-157.818232"><ele>1</ele></trkpt>
      <trkpt lat="21.260008" lon="-157.818707"><ele>1</ele></trkpt>
      <trkpt lat="21.260168" lon="-157.818178"><ele>2</ele></trkpt>
      <trkpt lat="21.261005" lon="-157.818834"><ele>1</ele></trkpt>
      <trkpt lat="21.261528" lon="-157.819543"><ele>1</ele></trkpt>
      <trkpt lat="21.261955" lon="-157.819891"><ele>1</ele></trkpt>
      <trkpt lat="21.262446" lon="-157.820158"><ele>1</ele></trkpt>
      <trkpt lat="21.263924" lon="-157.820531"><ele>1</ele></trkpt>
      <trkpt lat="21.263886" lon="-157.821078"><ele>1</ele></trkpt>
      <trkpt lat="21.263973" lon="-157.821363"><ele>1</ele></trkpt>
  </trkseg></trk>
</gpx>
