<?xml version="1.0" encoding="UTF-8"?>
<gpx version="1.1" creator="vitaegis.com/run" xmlns="http://www.topografix.com/GPX/1/1">
  <metadata><name>The Ten - Waikiki, Magic Island and Diamond Head</name><desc>Start: Gold Coast, Kalakaua Ave, Honolulu. Route traced on OpenStreetMap data (ODbL).</desc></metadata>
  <trk><name>The Ten - Waikiki, Magic Island and Diamond Head</name><trkseg>
      <trkpt lat="21.261892" lon="-157.820374"><ele>1</ele></trkpt>
      <trkpt lat="21.265336" lon="-157.821173"><ele>1</ele></trkpt>
      <trkpt lat="21.265245" lon="-157.821277"><ele>1</ele></trkpt>
      <trkpt lat="21.265103" lon="-157.821976"><ele>1</ele></trkpt>
      <trkpt lat="21.265635" lon="-157.822208"><ele>1</ele></trkpt>
      <trkpt lat="21.267077" lon="-157.822549"><ele>1</ele></trkpt>
      <trkpt lat="21.268453" lon="-157.822758"><ele>1</ele></trkpt>
      <trkpt lat="21.269331" lon="-157.822729"><ele>1</ele></trkpt>
      <trkpt lat="21.270399" lon="-157.822394"><ele>1</ele></trkpt>
      <trkpt lat="21.270419" lon="-157.82233"><ele>1</ele></trkpt>
      <trkpt lat="21.271505" lon="-157.822757"><ele>1</ele></trkpt>
      <trkpt lat="21.273903" lon="-157.82399"><ele>1</ele></trkpt>
      <trkpt lat="21.274924" lon="-157.824553"><ele>1</ele></trkpt>
      <trkpt lat="21.275125" lon="-157.824703"><ele>1</ele></trkpt>
      <trkpt lat="21.276539" lon="-157.826079"><ele>1</ele></trkpt>
      <trkpt lat="21.279369" lon="-157.829225"><ele>1</ele></trkpt>
      <trkpt lat="21.279869" lon="-157.829636"><ele>1</ele></trkpt>
      <trkpt lat="21.281491" lon="-157.83059"><ele>1</ele></trkpt>
      <trkpt lat="21.284028" lon="-157.83198"><ele>1</ele></trkpt>
      <trkpt lat="21.285546" lon="-157.832941"><ele>1</ele></trkpt>
      <trkpt lat="21.285598" lon="-157.833411"><ele>1</ele></trkpt>
      <trkpt lat="21.284911" lon="-157.83574"><ele>1</ele></trkpt>
      <trkpt lat="21.28456" lon="-157.836686"><ele>1</ele></trkpt>
      <trkpt lat="21.284478" lon="-157.837228"><ele>1</ele></trkpt>
      <trkpt lat="21.284521" lon="-157.837597"><ele>1</ele></trkpt>
      <trkpt lat="21.284611" lon="-157.837869"><ele>1</ele></trkpt>
      <trkpt lat="21.284791" lon="-157.838196"><ele>1</ele></trkpt>
      <trkpt lat="21.284976" lon="-157.838413"><ele>1</ele></trkpt>
      <trkpt lat="21.286892" lon="-157.840051"><ele>1</ele></trkpt>
      <trkpt lat="21.287091" lon="-157.84016"><ele>1</ele></trkpt>
      <trkpt lat="21.287968" lon="-157.840381"><ele>4</ele></trkpt>
      <trkpt lat="21.288332" lon="-157.840516"><ele>1</ele></trkpt>
      <trkpt lat="21.288705" lon="-157.840881"><ele>1</ele></trkpt>
      <trkpt lat="21.288979" lon="-157.841608"><ele>1</ele></trkpt>
      <trkpt lat="21.288889" lon="-157.841621"><ele>1</ele></trkpt>
      <trkpt lat="21.288859" lon="-157.84167"><ele>1</ele></trkpt>
      <trkpt lat="21.288749" lon="-157.841629"><ele>1</ele></trkpt>
      <trkpt lat="21.28868" lon="-157.841645"><ele>1</ele></trkpt>
      <trkpt lat="21.288382" lon="-157.841918"><ele>1</ele></trkpt>
      <trkpt lat="21.287724" lon="-157.84319"><ele>1</ele></trkpt>
      <trkpt lat="21.288325" lon="-157.845246"><ele>1</ele></trkpt>
      <trkpt lat="21.28847" lon="-157.845384"><ele>1</ele></trkpt>
      <trkpt lat="21.288518" lon="-157.845579"><ele>1</ele></trkpt>
      <trkpt lat="21.288651" lon="-157.84556"><ele>1</ele></trkpt>
      <trkpt lat="21.28874" lon="-157.845745"><ele>1</ele></trkpt>
      <trkpt lat="21.288651" lon="-157.84556"><ele>1</ele></trkpt>
      <trkpt lat="21.288462" lon="-157.845611"><ele>1</ele></trkpt>
      <trkpt lat="21.288294" lon="-157.845755"><ele>1</ele></trkpt>
      <trkpt lat="21.288318" lon="-157.845835"><ele>1</ele></trkpt>
      <trkpt lat="21.287963" lon="-157.845932"><ele>1</ele></trkpt>
      <trkpt lat="21.287033" lon="-157.845738"><ele>1</ele></trkpt>
      <trkpt lat="21.28684" lon="-157.845746"><ele>1</ele></trkpt>
      <trkpt lat="21.286437" lon="-157.845844"><ele>1</ele></trkpt>
      <trkpt lat="21.286356" lon="-157.84577"><ele>1</ele></trkpt>
      <trkpt lat="21.286125" lon="-157.844975"><ele>1</ele></trkpt>
      <trkpt lat="21.286072" lon="-157.844873"><ele>1</ele></trkpt>
      <trkpt lat="21.28603" lon="-157.844863"><ele>1</ele></trkpt>
      <trkpt lat="21.285451" lon="-157.845094"><ele>1</ele></trkpt>
      <trkpt lat="21.284867" lon="-157.845209"><ele>1</ele></trkpt>
      <trkpt lat="21.284075" lon="-157.845428"><ele>1</ele></trkpt>
      <trkpt lat="21.283722" lon="-157.845667"><ele>1</ele></trkpt>
      <trkpt lat="21.283661" lon="-157.84577"><ele>1</ele></trkpt>
      <trkpt lat="21.283673" lon="-157.845848"><ele>1</ele></trkpt>
      <trkpt lat="21.283609" lon="-157.845885"><ele>1</ele></trkpt>
      <trkpt lat="21.282996" lon="-157.845842"><ele>1</ele></trkpt>
      <trkpt lat="21.283021" lon="-157.845939"><ele>1</ele></trkpt>
      <trkpt lat="21.283287" lon="-157.846063"><ele>1</ele></trkpt>
      <trkpt lat="21.283494" lon="-157.846246"><ele>1</ele></trkpt>
      <trkpt lat="21.283827" lon="-157.846789"><ele>1</ele></trkpt>
      <trkpt lat="21.28393" lon="-157.847115"><ele>1</ele></trkpt>
      <trkpt lat="21.28398" lon="-157.847665"><ele>1</ele></trkpt>
      <trkpt lat="21.283936" lon="-157.848046"><ele>1</ele></trkpt>
      <trkpt lat="21.28384" lon="-157.848256"><ele>2</ele></trkpt>
      <trkpt lat="21.2843" lon="-157.848354"><ele>1</ele></trkpt>
      <trkpt lat="21.284558" lon="-157.848311"><ele>1</ele></trkpt>
      <trkpt lat="21.284643" lon="-157.848258"><ele>0</ele></trkpt>
      <trkpt lat="21.284805" lon="-157.847909"><ele>2</ele></trkpt>
      <trkpt lat="21.285004" lon="-157.847817"><ele>4</ele></trkpt>
      <trkpt lat="21.285188" lon="-157.847523"><ele>4</ele></trkpt>
      <trkpt lat="21.285599" lon="-157.847263"><ele>3</ele></trkpt>
      <trkpt lat="21.285659" lon="-157.847141"><ele>3</ele></trkpt>
      <trkpt lat="21.285654" lon="-157.846811"><ele>3</ele></trkpt>
      <trkpt lat="21.285709" lon="-157.846636"><ele>3</ele></trkpt>
      <trkpt lat="21.286068" lon="-157.846322"><ele>3</ele></trkpt>
      <trkpt lat="21.286248" lon="-157.846014"><ele>2</ele></trkpt>
      <trkpt lat="21.286308" lon="-157.845598"><ele>1</ele></trkpt>
      <trkpt lat="21.286125" lon="-157.844975"><ele>1</ele></trkpt>
      <trkpt lat="21.287983" lon="-157.844353"><ele>1</ele></trkpt>
      <trkpt lat="21.287653" lon="-157.843272"><ele>1</ele></trkpt>
      <trkpt lat="21.287658" lon="-157.843169"><ele>1</ele></trkpt>
      <trkpt lat="21.288413" lon="-157.841737"><ele>1</ele></trkpt>
      <trkpt lat="21.288634" lon="-157.84158"><ele>1</ele></trkpt>
      <trkpt lat="21.288949" lon="-157.841494"><ele>1</ele></trkpt>
      <trkpt lat="21.288705" lon="-157.840881"><ele>1</ele></trkpt>
      <trkpt lat="21.288332" lon="-157.840516"><ele>1</ele></trkpt>
      <trkpt lat="21.287968" lon="-157.840381"><ele>4</ele></trkpt>
      <trkpt lat="21.287091" lon="-157.84016"><ele>1</ele></trkpt>
      <trkpt lat="21.286892" lon="-157.840051"><ele>1</ele></trkpt>
      <trkpt lat="21.284976" lon="-157.838413"><ele>1</ele></trkpt>
      <trkpt lat="21.284791" lon="-157.838196"><ele>1</ele></trkpt>
      <trkpt lat="21.284611" lon="-157.837869"><ele>1</ele></trkpt>
      <trkpt lat="21.284521" lon="-157.837597"><ele>1</ele></trkpt>
      <trkpt lat="21.284478" lon="-157.837228"><ele>1</ele></trkpt>
      <trkpt lat="21.284511" lon="-157.836916"><ele>1</ele></trkpt>
      <trkpt lat="21.28456" lon="-157.836686"><ele>1</ele></trkpt>
      <trkpt lat="21.284911" lon="-157.83574"><ele>1</ele></trkpt>
      <trkpt lat="21.285598" lon="-157.833411"><ele>1</ele></trkpt>
      <trkpt lat="21.285546" lon="-157.832941"><ele>1</ele></trkpt>
      <trkpt lat="21.284028" lon="-157.83198"><ele>1</ele></trkpt>
      <trkpt lat="21.281491" lon="-157.83059"><ele>1</ele></trkpt>
      <trkpt lat="21.279869" lon="-157.829636"><ele>1</ele></trkpt>
      <trkpt lat="21.279369" lon="-157.829225"><ele>1</ele></trkpt>
      <trkpt lat="21.276539" lon="-157.826079"><ele>1</ele></trkpt>
      <trkpt lat="21.275125" lon="-157.824703"><ele>1</ele></trkpt>
      <trkpt lat="21.274924" lon="-157.824553"><ele>1</ele></trkpt>
      <trkpt lat="21.273903" lon="-157.82399"><ele>1</ele></trkpt>
      <trkpt lat="21.272311" lon="-157.823154"><ele>1</ele></trkpt>
      <trkpt lat="21.271231" lon="-157.822634"><ele>1</ele></trkpt>
      <trkpt lat="21.270853" lon="-157.82241"><ele>1</ele></trkpt>
      <trkpt lat="21.270282" lon="-157.82185"><ele>1</ele></trkpt>
      <trkpt lat="21.269795" lon="-157.821261"><ele>1</ele></trkpt>
      <trkpt lat="21.269555" lon="-157.820668"><ele>1</ele></trkpt>
      <trkpt lat="21.269295" lon="-157.817903"><ele>1</ele></trkpt>
      <trkpt lat="21.269111" lon="-157.815738"><ele>3</ele></trkpt>
      <trkpt lat="21.269046" lon="-157.813187"><ele>9</ele></trkpt>
      <trkpt lat="21.269155" lon="-157.812678"><ele>9</ele></trkpt>
      <trkpt lat="21.269593" lon="-157.811346"><ele>13</ele></trkpt>
      <trkpt lat="21.269794" lon="-157.808878"><ele>23</ele></trkpt>
      <trkpt lat="21.269784" lon="-157.80782"><ele>28</ele></trkpt>
      <trkpt lat="21.269602" lon="-157.806732"><ele>33</ele></trkpt>
      <trkpt lat="21.26957" lon="-157.804278"><ele>46</ele></trkpt>
      <trkpt lat="21.269657" lon="-157.803004"><ele>50</ele></trkpt>
      <trkpt lat="21.269615" lon="-157.802699"><ele>50</ele></trkpt>
      <trkpt lat="21.269397" lon="-157.802246"><ele>49</ele></trkpt>
      <trkpt lat="21.269044" lon="-157.801872"><ele>49</ele></trkpt>
      <trkpt lat="21.268297" lon="-157.800748"><ele>46</ele></trkpt>
      <trkpt lat="21.267795" lon="-157.800184"><ele>43</ele></trkpt>
      <trkpt lat="21.267196" lon="-157.799347"><ele>39</ele></trkpt>
      <trkpt lat="21.265556" lon="-157.797727"><ele>29</ele></trkpt>
      <trkpt lat="21.265165" lon="-157.797452"><ele>29</ele></trkpt>
      <trkpt lat="21.263296" lon="-157.796557"><ele>27</ele></trkpt>
      <trkpt lat="21.262593" lon="-157.796391"><ele>26</ele></trkpt>
      <trkpt lat="21.261893" lon="-157.796438"><ele>23</ele></trkpt>
      <trkpt lat="21.260328" lon="-157.796952"><ele>20</ele></trkpt>
      <trkpt lat="21.260064" lon="-157.797135"><ele>19</ele></trkpt>
      <trkpt lat="21.258971" lon="-157.798139"><ele>18</ele></trkpt>
      <trkpt lat="21.258756" lon="-157.799188"><ele>21</ele></trkpt>
      <trkpt lat="21.258623" lon="-157.799636"><ele>22</ele></trkpt>
      <trkpt lat="21.258473" lon="-157.799941"><ele>20</ele></trkpt>
      <trkpt lat="21.257837" lon="-157.800873"><ele>23</ele></trkpt>
      <trkpt lat="21.257693" lon="-157.801141"><ele>26</ele></trkpt>
      <trkpt lat="21.256955" lon="-157.803074"><ele>31</ele></trkpt>
      <trkpt lat="21.256075" lon="-157.805143"><ele>28</ele></trkpt>
      <trkpt lat="21.255778" lon="-157.805938"><ele>32</ele></trkpt>
      <trkpt lat="21.255698" lon="-157.807235"><ele>33</ele></trkpt>
      <trkpt lat="21.255732" lon="-157.807636"><ele>33</ele></trkpt>
      <trkpt lat="21.256384" lon="-157.811576"><ele>18</ele></trkpt>
      <trkpt lat="21.256313" lon="-157.812761"><ele>19</ele></trkpt>
      <trkpt lat="21.256489" lon="-157.81347"><ele>10</ele></trkpt>
      <trkpt lat="21.256589" lon="-157.814344"><ele>7</ele></trkpt>
      <trkpt lat="21.256661" lon="-157.814618"><ele>5</ele></trkpt>
      <trkpt lat="21.256976" lon="-157.815125"><ele>7</ele></trkpt>
      <trkpt lat="21.257762" lon="-157.816189"><ele>7</ele></trkpt>
      <trkpt lat="21.258006" lon="-157.816848"><ele>5</ele></trkpt>
      <trkpt lat="21.258213" lon="-157.817142"><ele>4</ele></trkpt>
      <trkpt lat="21.258397" lon="-157.817293"><ele>4</ele></trkpt>
      <trkpt lat="21.258806" lon="-157.817507"><ele>4</ele></trkpt>
      <trkpt lat="21.258801" lon="-157.817572"><ele>4</ele></trkpt>
      <trkpt lat="21.260112" lon="-157.818242"><ele>1</ele></trkpt>
      <trkpt lat="21.260112" lon="-157.818329"><ele>1</ele></trkpt>
      <trkpt lat="21.259935" lon="-157.818827"><ele>1</ele></trkpt>
      <trkpt lat="21.259954" lon="-157.819197"><ele>1</ele></trkpt>
      <trkpt lat="21.260008" lon="-157.819293"><ele>1</ele></trkpt>
      <trkpt lat="21.261486" lon="-157.820256"><ele>1</ele></trkpt>
      <trkpt lat="21.261892" lon="-157.820374"><ele>1</ele></trkpt>
  </trkseg></trk>
</gpx>
